KUIPER-00152            
1 65772U 25217L   25312.06241001  .00070724  00000+0  18489-2 0  9992
2 65772  51.8722 231.8353 0003335 141.6624 218.4600 15.38107754  6713
KUIPER-00153            
1 65773U 25217M   25312.16668980 -.00110241  00000+0 -50794-2 0  9999
2 65773  51.8716 232.9872 0010339 265.1543 239.7096 15.20164307  2493
KUIPER-00155            
1 65774U 25217N   25312.04061396  .00050668  00000+0  14084-2 0  9991
2 65774  51.8675 232.4160 0005059 240.8879 119.1601 15.36350456  6708
KUIPER-00156            
1 65775U 25217P   25312.06958213  .00064851  00000+0  17115-2 0  9994
2 65775  51.8724 231.8832 0002605 169.6814 190.4227 15.37855889  6712
KUIPER-00158            
1 65776U 25217Q   25312.16668980 -.00171467  00000+0 -56297-2 0  9993
2 65776  51.8726 231.8386 0003659 233.0608 103.9138 15.31725190  5068
KUIPER-00163            
1 65777U 25217R   25312.16668980 -.00823302  00000+0 -33815-1 0  9996
2 65777  51.8655 232.3174 0007959 264.7359 164.9802 15.26292145  1303
KUIPER-00165            
1 65778U 25217S   25312.08446005  .00023932  00000+0  65299-3 0  9992
2 65778  51.8702 231.9777 0003596 205.2842 154.7969 15.37307206  6719
KUIPER-00166            
1 65779U 25217T   25312.07699610  .00042440  00000+0  11438-2 0  9994
2 65779  51.8710 231.9327 0003072 174.2706 185.8316 15.37397904  6718
